OBJECT_NAME,OBJECT_ID,EPOCH,MEAN_MOTION,ECCENTRICITY,INCLINATION,RA_OF_ASC_NODE,ARG_OF_PERICENTER,MEAN_ANOMALY,EPHEMERIS_TYPE,CLASSIFICATION_TYPE,NORAD_CAT_ID,ELEMENT_SET_NO,REV_AT_EPOCH,BSTAR,MEAN_MOTION_DOT,MEAN_MOTION_DDOT
HJ-2B,2020-067B,2026-06-04T06:12:29.005056,14.76541928,.00011142,97.8892,234.9473,89.5115,270.6223,0,U,46479,999,30635,.15852564E-3,.1055E-4,0
GONETS-M 17,2020-068A,2026-06-04T05:58:56.756928,12.42872654,.00234312,82.4988,355.5532,64.4552,295.8947,0,U,46486,999,25755,-.6550618E-5,.9E-7,0
GONETS-M 18,2020-068B,2026-06-04T07:02:31.793856,12.42872807,.00207045,82.4941,354.6485,60.9572,299.3579,0,U,46487,999,25754,.41023262E-3,.67E-6,0
GONETS-M 19,2020-068C,2026-06-04T06:27:23.918976,12.42891868,.00144939,82.4967,355.1117,75.5286,284.7401,0,U,46488,999,25764,.14405942E-3,.3E-6,0
DEKART,2020-068H,2026-06-04T06:04:11.862912,15.37038961,.0007961,97.8742,163.5999,342.3985,17.6981,0,U,46493,999,31378,.38118836E-3,.13746E-3,0
NORBI,2020-068J,2026-06-04T05:31:36.736320,15.47882486,.00047889,97.8630,170.0585,313.0472,47.0375,0,U,46494,999,31420,.45599529E-3,.23681E-3,0
SALSAT,2020-068K,2026-06-03T23:56:12.056928,15.29597840,.00093644,97.8850,157.2614,359.9507,0.1729,0,U,46495,999,31334,.30076162E-3,.8555E-4,0
ICEYE-X6,2020-068M,2026-06-04T06:55:32.646720,15.04448493,.00086184,98.0969,148.3455,125.3573,234.8458,0,U,46497,999,31129,.20960244E-3,.2865E-4,0
NETSAT-4,2020-068U,2026-06-03T13:50:19.818528,15.43386179,.00056992,97.8606,161.7287,30.7472,329.4107,0,U,46504,999,31367,.42675312E-3,.18989E-3,0
NETSAT-3,2020-068V,2026-06-03T13:44:11.895360,15.42183437,.00060677,97.8653,159.9578,46.7511,313.4240,0,U,46505,999,31358,.45992462E-3,.19667E-3,0
NETSAT-1,2020-068W,2026-06-04T05:22:21.074592,15.34317185,.000637,97.8744,155.1432,67.0325,293.1588,0,U,46506,999,31331,.45524167E-3,.15061E-3,0
NETSAT-2,2020-068X,2026-06-03T13:40:59.490336,15.45384645,.00051933,97.8621,161.5679,62.6477,297.5299,0,U,46507,999,31363,.51556175E-3,.24586E-3,0
TIANQI-6,2020-076D,2026-06-04T05:17:46.756320,15.07091747,.0009352,34.9979,128.0377,52.0897,308.0657,0,U,46810,999,30662,.28892997E-3,.4404E-4,0
KSM1-C,2020-081B,2026-06-04T06:36:41.123808,15.26512698,.00006938,36.8931,138.6415,159.0607,201.0171,0,U,46906,999,30719,.33054333E-3,.8748E-4,0
KSM1-D,2020-081C,2026-06-04T06:14:38.870304,15.24527876,.00033941,36.8946,147.4954,173.8706,186.2084,0,U,46907,999,30712,.27816777E-3,.6914E-4,0
KSM1-A,2020-081H,2026-06-04T06:31:50.626272,15.25743417,.00042352,36.8942,140.9587,226.2352,133.8047,0,U,46912,999,30720,.32784609E-3,.8476E-4,0
R2,2020-081J,2026-06-01T01:57:08.509536,15.25182244,.00068263,36.8961,160.5241,158.1099,201.9942,0,U,46913,999,30952,.346666E-3,.882E-4,0
KSM1-B,2020-081K,2026-06-04T04:42:44.695296,15.24321145,.00054441,36.9003,148.4627,186.8149,173.2527,0,U,46914,999,31020,.29806434E-3,.7371E-4,0
GONETS-M 20,2020-091A,2026-06-04T06:54:03.831840,12.42893201,.00205793,82.5038,310.4558,206.2026,153.8014,0,U,47227,999,24947,.12968464E-3,.28E-6,0
GONETS-M 21,2020-091B,2026-06-04T06:16:20.178624,12.42886583,.00141303,82.4961,309.1869,219.6794,140.3253,0,U,47228,999,24946,.43875676E-2,.618E-5,0
GONETS-M 22,2020-091C,2026-06-04T05:37:40.403424,12.42892216,.00215221,82.5020,310.0964,201.6363,158.3809,0,U,47229,999,24941,.22266565E-3,.41E-6,0
CUBEL,2021-006AM,2026-06-04T02:38:12.472512,15.40800321,.00058706,97.2337,205.8206,205.3160,154.7800,0,U,47448,999,29774,.23435047E-3,.9523E-4,0
ARKTIKA-M 1,2021-016A,2026-06-02T00:56:25.095840,2.00628509,.72832396,63.2379,59.8266,269.8643,14.6915,0,U,47719,999,3848,0,-.2E-5,0
STARLINK-2342,2021-021Z,2026-06-04T08:00:19.999584,15.70201983,.00015043,53.1542,212.2186,74.6821,13.6007,0,U,47883,999,589,.86347218E-2,.1184299E-1,0
GRUS-1B,2021-022C,2026-06-04T07:02:17.715840,14.98958285,.00167042,97.5401,38.9132,12.7410,347.4232,0,U,47934,999,28396,.18186383E-3,.2149E-4,0
2021-022F,2021-022F,2026-06-04T06:14:44.032704,15.32834596,.00112137,97.3903,55.9697,131.3201,228.9008,0,U,47937,999,28773,.31062398E-3,.9793E-4,0
UNISAT-7,2021-022P,2026-06-04T00:52:33.262176,15.40095960,.00111182,97.3901,59.8267,116.9474,243.2909,0,U,47945,999,28783,.38632341E-3,.15422E-3,0
2021-022X,2021-022X,2026-06-03T07:48:24.291360,15.71763165,.0008176,97.3924,70.5014,103.2241,256.9935,0,U,47953,999,28832,.78588292E-3,.10259E-2,0
2021-022AC,2021-022AC,2026-06-02T07:53:47.347008,16.19599735,.00080573,97.3664,74.8283,174.4420,185.6960,0,U,47958,999,28763,.12284411E-2,.2248736E-1,.2417505E-5
GLOBAL-9,2021-023G,2026-06-03T22:42:09.984096,15.46052590,.0004941,44.9824,324.9238,252.5688,107.4661,0,U,47971,999,29289,.48948485E-3,.24185E-3,0
AII-BRAVO,2021-034C,2026-06-04T02:37:29.832384,15.03364765,.00049966,97.5601,210.3174,315.8846,44.1981,0,U,48270,999,27765,.41492465E-3,.558E-4,0
TYVAK-182A,2021-034D,2026-06-04T02:37:06.697920,15.06043179,.00062674,97.5725,214.2541,28.7355,331.4216,0,U,48271,999,27786,.45833867E-3,.6631E-4,0
CSS (TIANHE),2021-035A,2026-06-04T02:43:28.756992,15.60233359,.0009764,41.4695,41.5326,338.4220,21.6207,0,U,48274,999,29112,.30784752E-3,.25633E-3,0
TYVAK-0130,2021-041BF,2026-06-04T00:35:31.069824,15.27369068,.00112531,52.9942,87.2052,124.8097,235.3960,0,U,48606,999,27837,.3510603E-3,.9208E-4,0
HAIYANG-2D,2021-043A,2026-06-04T06:42:22.597344,13.83374945,.0011337,65.9993,336.8362,270.4515,89.5254,0,U,48621,999,25476,-.1042019E-5,-.82E-6,0
2021-050D,2021-050D,2026-06-04T06:19:02.390304,15.23196808,.00044579,97.3339,231.5937,325.4494,34.6453,0,U,48843,999,27699,.25180066E-3,.5888E-4,0
TYVAK-0173,2021-059P,2026-06-04T02:20:52.712448,14.81846546,.00109842,96.0084,234.7082,77.6210,282.6236,0,U,48892,999,26630,.3079229E-3,.2404E-4,0
MANDRAKE 2 ABLE,2021-059AE,2026-06-04T02:36:11.080512,15.54435556,.00055401,97.7036,343.9005,51.3785,308.7963,0,U,48907,999,27509,.35692122E-3,.23383E-3,0
MANDRAKE 2 BAKER,2021-059AF,2026-06-04T01:52:04.952640,15.58867021,.00040219,97.7007,346.6493,53.6497,306.5129,0,U,48908,999,27525,.39100164E-3,.30218E-3,0
PACE-1,2021-059AG,2026-06-04T02:19:53.341824,15.77603012,.00009615,97.6780,351.7838,20.3121,339.8182,0,U,48909,999,27573,.53272966E-3,.89098E-3,0
YAM-3,2021-059AN,2026-06-04T01:51:56.232288,15.48249286,.00061131,97.6987,341.1796,55.9162,304.2667,0,U,48915,999,27496,.24627601E-3,.12895E-3,0
FARADAY_PHOENIX,2021-059AX,2026-06-04T01:54:37.982592,15.75117954,.00029771,97.6825,351.6831,17.6891,342.4476,0,U,48924,999,27559,.87892158E-3,.13264E-2,0
DEMO8 (TENZING),2021-059CA,2026-06-04T01:08:02.669568,15.54471925,.00073974,97.7027,347.4710,43.7787,316.4051,0,U,48951,999,27526,.32822528E-3,.21529E-3,0
NAPA-2,2021-059CN,2026-06-04T06:50:09.458016,15.93049182,.00013926,97.6746,352.6694,261.7251,98.3865,0,U,48963,999,27575,.7611178E-3,.263817E-2,.28611099E-4
FENGYUN 3E,2021-062A,2026-06-04T05:39:30.985056,14.19902051,.00026439,98.7488,158.7881,106.6735,253.4732,0,U,49008,999,25474,-.11492668E-3,-.288E-5,0
ISS (NAUKA),2021-066A,2026-06-03T23:13:08.053248,15.49590346,.00070816,51.6330,5.5404,130.0270,230.1341,0,U,49044,999,56910,.15806838E-3,.8451E-4,0
STARLINK-3100,2021-082Q,2026-06-04T02:07:54.291648,14.98346644,.00030576,70.0001,76.6035,271.0680,89.0128,0,U,49144,999,25892,.16002052E-3,.1818E-4,0
CUTE,2021-088D,2026-06-03T05:23:26.374848,15.88005002,.0006699,97.4168,252.2144,259.6590,100.3927,0,U,49263,999,26033,.14408E-2,.406363E-2,0
2021-091B,2021-091B,2026-06-04T06:37:51.801600,15.18480855,.00150224,97.4468,343.0484,85.4006,274.8944,0,U,49316,999,25702,.83422444E-4,.1656E-4,0
SDGSAT 1,2021-100A,2026-06-04T04:41:14.049600,15.19861792,.00076085,97.2637,202.6263,351.4996,8.6109,0,U,49387,999,25394,.18749179E-3,.3959E-4,0
TEIKYOSAT-4 (OORURI),2021-102B,2026-06-04T01:28:41.473632,15.09460709,.00114615,97.3671,185.0554,346.7674,13.3253,0,U,49396,999,25074,.11983465E-3,.186E-4,0
Z-SAT,2021-102E,2026-06-04T06:42:58.790304,15.18166781,.00149211,97.3328,190.9944,295.3918,64.5771,0,U,49399,999,25148,.2765187E-3,.5599E-4,0
HIBARI,2021-102F,2026-06-04T03:14:46.410432,15.31456330,.00100874,97.3242,201.1894,242.0486,117.9735,0,U,49400,999,25219,.39817322E-3,.12043E-3,0
KOSEN-1,2021-102H,2026-06-03T21:39:20.612160,15.26641992,.0012071,97.3187,197.3187,251.0135,108.9797,0,U,49402,999,25199,.30231E-3,.787E-4,0
GLOBAL-14,2021-106A,2026-06-03T22:38:41.746272,15.49914872,.0017486,42.0049,9.7485,290.4455,69.4511,0,U,49469,999,25607,.47583912E-3,.27229E-3,0
GAOFEN-3 02,2021-109A,2026-06-04T06:48:02.850048,14.42215094,.00036409,98.4085,163.5630,46.1752,313.9738,0,U,49495,999,23845,.1244422E-5,-.39E-6,0
GLOBAL-12,2021-115BA,2026-06-04T01:48:28.112832,15.52745415,.00036047,53.1950,107.5463,39.7172,320.4103,0,U,49772,999,25386,.53395061E-3,.33245E-3,0
GLOBAL-13,2021-115BB,2026-06-04T02:58:35.534496,15.45510280,.00042805,53.1966,116.6620,78.2707,281.8781,0,U,49773,999,25374,.44231825E-3,.21194E-3,0
GLOBAL-17,2021-120A,2026-06-03T09:08:25.858176,15.51500943,.00129084,41.9940,131.5161,163.5948,196.5316,0,U,49949,999,25275,.46450586E-3,.28057E-3,0
GLOBAL-16,2021-120B,2026-06-01T09:04:06.902688,15.49391553,.00104196,41.9931,146.8808,139.4695,220.6926,0,U,49950,999,25239,.40879456E-3,.22812E-3,0
XW-3 (CAS-9),2021-131B,2026-06-04T06:45:15.286752,14.41345466,.00050403,98.4979,247.7411,126.5293,233.6360,0,U,50466,999,23325,.21804077E-3,.662E-5,0
ION SCV-004,2022-002K,2026-06-04T02:12:53.486208,15.30316595,.00084565,97.2835,212.9975,50.9142,309.2850,0,U,50993,999,24329,.21533222E-3,.6245E-4,0
ETV-A1,2022-002CE,2026-06-04T05:13:31.943712,15.40402433,.0005911,97.2880,221.5626,47.4777,312.6968,0,U,51060,999,24384,.30427698E-3,.1223E-3,0
BRO-5,2022-002CF,2026-06-04T05:59:30.174720,15.46625363,.00048225,97.2999,228.8112,28.6435,331.5079,0,U,51061,999,24425,.63979565E-3,.31893E-3,0
LUDI TANCE 1-01A (L-SAR 01A),2022-007A,2026-06-04T06:33:56.153376,14.88417406,.00016177,97.8105,162.8770,90.4139,269.7263,0,U,51284,999,23655,.87800917E-4,.76E-5,0
